[{"OBJECT_NAME":"CELESTIS-17 & SHERPA-FX1","OBJECT_ID":"2021-006CB","EPOCH":"2026-03-09T15:26:05.078112","MEAN_MOTION":15.30994801,"ECCENTRICITY":0.000663,"INCLINATION":97.2397,"RA_OF_ASC_NODE":112.1052,"ARG_OF_PERICENTER":178.1385,"MEAN_ANOMALY":181.9882,"EPHEMERIS_TYPE":0,"CLASSIFICATION_TYPE":"U","NORAD_CAT_ID":47486,"ELEMENT_SET_NO":999,"REV_AT_EPOCH":28406,"BSTAR":0.00024301,"MEAN_MOTION_DOT":7.207e-5,"MEAN_MOTION_DDOT":0},{"OBJECT_NAME":"STARLINK-32872","OBJECT_ID":"2025-032Q","EPOCH":"2026-03-09T02:05:11.912352","MEAN_MOTION":15.27581564,"ECCENTRICITY":0.00018528,"INCLINATION":43.0033,"RA_OF_ASC_NODE":339.8177,"ARG_OF_PERICENTER":257.3444,"MEAN_ANOMALY":102.72,"EPHEMERIS_TYPE":0,"CLASSIFICATION_TYPE":"U","NORAD_CAT_ID":63019,"ELEMENT_SET_NO":999,"REV_AT_EPOCH":6052,"BSTAR":0.0013464023,"MEAN_MOTION_DOT":0.00036976,"MEAN_MOTION_DDOT":0}]
